NORAD_CAT_ID,OBJECT_NAME,OBJECT_TYPE,EPOCH,MEAN_MOTION,ECCENTRICITY,INCLINATION,RA_OF_ASC_NODE,ARG_OF_PERICENTER,MEAN_ANOMALY,BSTAR,MEAN_MOTION_DOT,MEAN_MOTION_DDOT,TLE_LINE0,TLE_LINE1,TLE_LINE2,SEMIMAJOR_AXIS,PERIOD,APOGEE,PERIGEE,DECAYED
52685.0,STARLINK-4029,PAYLOAD,2024-08-14 05:11:03,15.08843388,0.0001431,53.2154,194.0557,87.7607,272.3549,0.00070985,0.00011028,0.0,0 STARLINK-4029,1 52685U 22053AF  24227.21601565  .00011028  00000-0  70985-3 0  9995,2 52685  53.2154 194.0557 0001431  87.7607 272.3549 15.08843388124325,6917.87,95.437,540.725,538.745,0.0
52685.0,STARLINK-4029,PAYLOAD,2024-08-14 08:21:49,15.08849207,0.0001383,53.2152,193.461,89.5018,270.6132,0.00083883,0.00013091,0.0,0 STARLINK-4029,1 52685U 22053AF  24227.34849514  .00013091  00000-0  83883-3 0  9990,2 52685  53.2152 193.4610 0001383  89.5018 270.6132 15.08849207124716,6917.852,95.437,540.674,538.761,0.0
52685.0,STARLINK-4029,PAYLOAD,2024-08-15 05:01:50,15.08855013,0.0001367,53.2146,189.5951,91.4564,268.6584,0.00048302,7.411e-05,0.0,0 STARLINK-4029,1 52685U 22053AF  24228.20961023  .00007411  00000-0  48302-3 0  9992,2 52685  53.2146 189.5951 0001367  91.4564 268.6584 15.08855013124476,6917.835,95.437,540.645,538.754,0.0
52685.0,STARLINK-4029,PAYLOAD,2024-08-15 14:34:08,15.08853135,0.0001386,53.2143,187.8109,84.1517,275.9633,0.00028682,4.281e-05,0.0,0 STARLINK-4029,1 52685U 22053AF  24228.60704792  .00004281  00000-0  28682-3 0  9995,2 52685  53.2143 187.8109 0001386  84.1517 275.9633 15.08853135124904,6917.84,95.437,540.664,538.746,0.0
52685.0,STARLINK-4029,PAYLOAD,2024-08-16 04:52:37,15.08846042,0.0001375,53.2145,185.1348,90.056,270.059,0.00016662,2.365e-05,0.0,0 STARLINK-4029,1 52685U 22053AF  24229.20320888  .00002365  00000-0  16662-3 0  9998,2 52685  53.2145 185.1348 0001375  90.0560 270.0590 15.08846042124620,6917.862,95.437,540.678,538.776,0.0
52685.0,STARLINK-4029,PAYLOAD,2024-08-16 20:46:28,15.08847956,0.0001397,53.2144,182.1623,91.9588,268.1564,0.00039699,6.037e-05,0.0,0 STARLINK-4029,1 52685U 22053AF  24229.86560882  .00006037  00000-0  39699-3 0  9995,2 52685  53.2144 182.1623 0001397  91.9588 268.1564 15.08847956125092,6917.856,95.437,540.687,538.755,0.0
52685.0,STARLINK-4029,PAYLOAD,2024-08-17 03:08:01,15.08848366,0.0001396,53.2144,180.9723,88.2272,271.888,0.00041532,6.33e-05,0.0,0 STARLINK-4029,1 52685U 22053AF  24230.13056821  .00006330  00000-0  41532-3 0  9995,2 52685  53.2144 180.9723 0001396  88.2272 271.8880 15.08848366125130,6917.855,95.437,540.686,538.754,0.0
52685.0,STARLINK-4029,PAYLOAD,2024-08-18 02:58:48,15.08841205,0.0001484,53.2156,176.5132,85.9352,274.1809,0.00010198,1.335e-05,0.0,0 STARLINK-4029,1 52685U 22053AF  24231.12417093  .00001335  00000-0  10198-3 0  9991,2 52685  53.2156 176.5132 0001484  85.9352 274.1809 15.08841205124916,6917.877,95.437,540.768,538.715,0.0
52685.0,STARLINK-4029,PAYLOAD,2024-08-18 20:28:02,15.08842149,0.0001539,53.2164,173.2386,100.5142,259.6024,1.6631e-05,-2.3e-07,0.0,0 STARLINK-4029,1 52685U 22053AF  24231.85281058 -.00000023  00000-0  16631-4 0  9994,2 52685  53.2164 173.2386 0001539 100.5142 259.6024 15.08842149125390,6917.874,95.437,540.803,538.674,0.0
52685.0,STARLINK-4029,PAYLOAD,2024-08-19 06:00:21,15.0884519,0.0001521,53.2164,171.4542,105.3619,254.7541,6.9797e-05,8.23e-06,0.0,0 STARLINK-4029,1 52685U 22053AF  24232.25024797  .00000823  00000-0  69797-4 0  9992,2 52685  53.2164 171.4542 0001521 105.3619 254.7541 15.08845190125082,6917.865,95.437,540.782,538.677,0.0
52685.0,STARLINK-4029,PAYLOAD,2024-08-19 20:18:50,15.08832963,0.0001311,53.2153,168.7762,96.2661,263.848,-8.2711e-06,-4.19e-06,0.0,0 STARLINK-4029,1 52685U 22053AF  24232.84641639 -.00000419  00000-0 -82711-5 0  9992,2 52685  53.2153 168.7762 0001311  96.2661 263.8480 15.08832963125172,6917.902,95.438,540.674,538.86,0.0
52685.0,STARLINK-4029,PAYLOAD,2024-08-20 02:40:22,15.08838449,0.0001269,53.2169,167.5904,103.324,256.7894,0.00010236,1.341e-05,0.0,0 STARLINK-4029,1 52685U 22053AF  24233.11137391  .00001341  00000-0  10236-3 0  9992,2 52685  53.2169 167.5904 0001269 103.3240 256.7894 15.08838449125589,6917.885,95.438,540.628,538.872,0.0
52685.0,STARLINK-4029,PAYLOAD,2024-08-21 00:55:46,15.08843062,0.0001218,53.2161,163.4266,96.2771,263.836,0.00012617,1.721e-05,0.0,0 STARLINK-4029,1 52685U 22053AF  24234.03873284  .00001721  00000-0  12617-3 0  9999,2 52685  53.2161 163.4266 0001218  96.2771 263.8360 15.08843062125720,6917.871,95.437,540.579,538.893,0.0
52685.0,STARLINK-4029,PAYLOAD,2024-08-21 18:25:01,15.08836669,0.0001217,53.2161,160.1578,100.7482,259.3647,0.00012827,1.754e-05,0.0,0 STARLINK-4029,1 52685U 22053AF  24234.76737728  .00001754  00000-0  12827-3 0  9990,2 52685  53.2161 160.1578 0001217 100.7482 259.3647 15.08836669125463,6917.891,95.438,540.597,538.914,0.0
